POLYITAN-1              
1 40042U 14033AJ  26192.32301815  .00011667  00000+0  35550-3 0  9995
2 40042  98.0945 220.8813 0008201  74.8750 285.3398 15.34125917657298
TIGRISAT                
1 40043U 14033AK  26192.36972539  .00000887  00000+0  10764-3 0  9999
2 40043  97.7858 341.8319 0048957 356.9649   3.1262 14.85242878649216
AEROCUBE 6A             
1 40045U 14033AM  26190.73142161  .00003408  00000+0  28750-3 0  9996
2 40045  97.7235 357.4445 0036915 299.7682  59.9870 14.98308817649991
AEROCUBE 6B             
1 40046U 14033AN  26191.24554496  .00003186  00000+0  25890-3 0  9997
2 40046  97.7203 357.7928 0037944 287.6201  72.0880 14.99771692650212
CANX-4                  
1 40055U 14034C   26191.45650204  .00000539  00000+0  76449-4 0  9991
2 40055  98.3092  67.6207 0011574 299.7507  60.2552 14.81306260647976
CANX-5                  
1 40056U 14034D   26192.46788138  .00000460  00000+0  66288-4 0  9995
2 40056  98.3092  68.7139 0011517 296.3848  63.6181 14.81324563638938
UKUBE-1                 
1 40074U 14037F   26192.49400833  .00004949  00000+0  27760-3 0  9991
2 40074  98.4242 198.3264 0003300  96.1254 264.0351 15.13914750652237
BRITE-PL2 (HEWELIUSZ)   
1 40119U 14049B   26192.54109981  .00001064  00000+0  10344-3 0  9995
2 40119  97.9117 304.7322 0014652  34.1400 326.0759 14.94680800645087
AEROCUBE 5C             
1 40965U 15058B   26190.02939822  .00001855  00000+0  17147-3 0  9997
2 40965  64.7653 194.6344 0131922  54.7863 306.5516 14.91551276368913
AEROCUBE 7              
1 40966U 15058C   26192.36980397  .00003081  00000+0  25064-3 0  9990
2 40966  64.7604 169.0605 0121753  52.2144 308.9921 14.95890731369577
FOX-1A (AO-85)          
1 40967U 15058D   26192.02911053  .00001601  00000+0  15193-3 0  9995
2 40967  64.7731 204.8837 0132046  47.3799 313.8357 14.91072604117129
SINOD-D 1               
1 40968U 15058E   26192.41172870  .00002981  00000+0  24247-3 0  9997
2 40968  64.7731 183.0409 0120743  43.5992 317.4585 14.96065583120284
SNAP-3 ALICE            
1 40970U 15058G   26191.52641204  .00120022  00000+0  11218-2 0  9993
2 40970  64.7493  22.8906 0023802 351.6430   8.4319 15.66308605120535
LMRST-SAT               
1 40971U 15058H   26191.31966356  .00001755  00000+0  16606-3 0  9997
2 40971  64.7738 203.4710 0133546  49.6543 311.6141 14.90686200117000
SNAP-3 EDDIE            
1 40972U 15058J   26192.45486316  .00105668  00000+0  92989-3 0  9993
2 40972  64.7398  10.1924 0025141 353.8658   6.2180 15.67800394122824
PROPCUBE 3              
1 40973U 15058K   26192.36897564  .00002600  00000+0  22048-3 0  9996
2 40973  64.7665 176.9739 0125469  50.4448 310.7670 14.94396849118419
BISONSAT                
1 40974U 15058L   26192.16907161  .00009235  00000+0  43798-3 0  9996
2 40974  64.7586  96.0683 0081716  37.5651 323.1143 15.16860579119257
SNAP-3 JIMI             
1 40975U 15058M   26192.28512112  .00004584  00000+0  31540-3 0  9992
2 40975  64.7632 143.5121 0107546  45.8501 315.1396 15.02574155117842
PROPCUBE 1 (FLORA)      
1 40976U 15058N   26192.50451919  .00001281  00000+0  13042-3 0  9993
2 40976  64.7727 219.8641 0132216  51.4946 309.7934 14.89317080119889
SINOD-D 3               
1 40977U 15058P   26192.47145110  .00002388  00000+0  20732-3 0  9996
2 40977  64.7701 199.9779 0120761  48.5870 312.5545 14.94155488118389
RAVAN                   
1 41849U 16067B   26190.61910389  .00045047  00000+0  62255-3 0  9993
2 41849  97.9855  82.8186 0001699 255.2675 104.8390 15.57028665531189
CELTEE 1                
1 41850U 16067C   26192.10687147  .00003339  00000+0  15905-3 0  9992
2 41850  98.0649  60.3057 0002193 115.6959 244.4500 15.19916228529513
OPTICUBE 04             
1 41851U 16067D   26192.53616336  .00001694  00000+0  10910-3 0  9995
2 41851  98.0681  46.0891 0016426  39.7275 320.5153 15.09763477528848
AEROCUBE 8D             
1 41852U 16067E   26189.61813817  .00004874  00000+0  20032-3 0  9993
2 41852  98.0658  61.4206 0004878  72.9126 287.2644 15.24707647529339
AEROCUBE 8C             
1 41853U 16067F   26192.06738551  .00004549  00000+0  18565-3 0  9995
2 41853  98.0531  61.2545 0004677 357.4690   2.6521 15.24986658529703
CORVUS BC2              
1 42846U 17042X   26191.31136565  .00002103  00000+0  14633-3 0  9992
2 42846  97.4090 351.7667 0013871  39.1681 321.0548 15.06442373490548
CORVUS BC1              
1 42847U 17042Y   26191.70191670  .00001633  00000+0  11410-3 0  9991
2 42847  97.4119 352.9716 0012081  16.3956 343.7660 15.06607650490630
MAKERSAT 0              
1 43016U 17073D   26192.14351799  .00012570  00000+0  33352-3 0  9994
2 43016  97.4598  74.8581 0105180 186.6952 173.2893 15.32906919470136
SIRION PATHFINDER-2     
1 43759U 18099B   26192.36107259  .00002969  00000+0  16350-3 0  9991
2 43759  97.4245 240.8450 0008097 205.7897 154.2933 15.14758808416281
CORVUS BC4              
1 43767U 18099K   26192.06983331  .00002873  00000+0  16777-3 0  9997
2 43767  97.4058 234.3515 0006530 278.9204  81.1287 15.12681527416018
